start=new Date('2023-05-16T00:00:00.000Z').valueOf();
sats=[{"TIME_SYSTEM":"UTC","TLE_LINE2":"2 51997  53.2160 318.1415 0001064  89.7760 270.3354 15.08838468 67098","GP_ID":"231899197","SITE":"AFETR","EPHEMERIS_TYPE":"0","OBJECT_ID":"2022-025AT","SEMIMAJOR_AXIS":"6917.885","RCS_SIZE":"MEDIUM","MEAN_MOTION_DOT":"-0.00000175","REV_AT_EPOCH":"6709","EPOCH":"2023-05-15T18:22:05.102976","MEAN_ANOMALY":"270.3354","OBJECT_NAME":"STARLINK-3589","FILE":"3908721","COUNTRY_CODE":"US","BSTAR":"0.00000711160000","NORAD_CAT_ID":"51997","CENTER_NAME":"EARTH","RA_OF_ASC_NODE":"318.1415","ECCENTRICITY":"0.00010640","INCLINATION":"53.2160","ARG_OF_PERICENTER":"89.7760","OBJECT_TYPE":"PAYLOAD","MEAN_MOTION":"15.08838468","PERIAPSIS":"539.014","CLASSIFICATION_TYPE":"U","PERIOD":"95.438","DECAY_DATE":null,"LAUNCH_DATE":"2022-03-09","ELEMENT_SET_NO":"999","APOAPSIS":"540.486","MEAN_ELEMENT_THEORY":"SGP4","TLE_LINE1":"1 51997U 22025AT  23135.76533684 -.00000175  00000-0  71116-5 0  9993","MEAN_MOTION_DDOT":"0.0000000000000","REF_FRAME":"TEME"},{"ELEMENT_SET_NO":"999","MEAN_ELEMENT_THEORY":"SGP4","APOAPSIS":"540.494","LAUNCH_DATE":"2022-03-09","DECAY_DATE":null,"REF_FRAME":"TEME","MEAN_MOTION_DDOT":"0.0000000000000","TLE_LINE1":"1 51998U 22025AU  23135.79109676 -.00000202  00000-0  53745-5 0  9996","CENTER_NAME":"EARTH","NORAD_CAT_ID":"51998","FILE":"3908728","BSTAR":"0.00000537450000","COUNTRY_CODE":"US","PERIAPSIS":"538.992","MEAN_MOTION":"15.08840800","PERIOD":"95.438","CLASSIFICATION_TYPE":"U","ARG_OF_PERICENTER":"77.1811","INCLINATION":"53.2171","RA_OF_ASC_NODE":"318.0223","ECCENTRICITY":"0.00010860","OBJECT_TYPE":"PAYLOAD","REV_AT_EPOCH":"6710","OBJECT_ID":"2022-025AU","RCS_SIZE":"MEDIUM","MEAN_MOTION_DOT":"-0.00000202","SEMIMAJOR_AXIS":"6917.878","MEAN_ANOMALY":"282.9302","OBJECT_NAME":"STARLINK-3618","EPOCH":"2023-05-15T18:59:10.760064","TLE_LINE2":"2 51998  53.2171 318.0223 0001086  77.1811 282.9302 15.08840800 67106","TIME_SYSTEM":"UTC","GP_ID":"231899579","SITE":"AFETR","EPHEMERIS_TYPE":"0"},{"REF_FRAME":"TEME","MEAN_MOTION_DDOT":"0.0000000000000","TLE_LINE1":"1 51999U 22025AV  23135.68438767 -.00001487  00000-0 -75371-4 0  9996","ELEMENT_SET_NO":"999","APOAPSIS":"540.577","MEAN_ELEMENT_THEORY":"SGP4","LAUNCH_DATE":"2022-03-09","DECAY_DATE":null,"MEAN_MOTION":"15.08827907","PERIAPSIS":"538.987","CLASSIFICATION_TYPE":"U","PERIOD":"95.438","RA_OF_ASC_NODE":"318.4951","ECCENTRICITY":"0.00011490","INCLINATION":"53.2171","ARG_OF_PERICENTER":"95.4924","OBJECT_TYPE":"PAYLOAD","NORAD_CAT_ID":"51999","CENTER_NAME":"EARTH","FILE":"3908728","COUNTRY_CODE":"US","BSTAR":"-0.00007537100000","MEAN_ANOMALY":"264.6199","OBJECT_NAME":"STARLINK-3667","EPOCH":"2023-05-15T16:25:31.094688","REV_AT_EPOCH":"6708","OBJECT_ID":"2022-025AV","SEMIMAJOR_AXIS":"6917.917","RCS_SIZE":"LARGE","MEAN_MOTION_DOT":"-0.00001487","EPHEMERIS_TYPE":"0","TIME_SYSTEM":"UTC","TLE_LINE2":"2 51999  53.2171 318.4951 0001149  95.4924 264.6199 15.08827907 67088","GP_ID":"231899580","SITE":"AFETR"},{"LAUNCH_DATE":"2022-03-09","DECAY_DATE":null,"ELEMENT_SET_NO":"999","APOAPSIS":"540.396","MEAN_ELEMENT_THEORY":"SGP4","MEAN_MOTION_DDOT":"0.0000000000000","TLE_LINE1":"1 52000U 22025AW  23135.77636489  .00001437  00000-0  10832-3 0  9994","REF_FRAME":"TEME","FILE":"3908892","COUNTRY_CODE":"US","BSTAR":"0.00010832000000","NORAD_CAT_ID":"52000","CENTER_NAME":"EARTH","INCLINATION":"53.2167","RA_OF_ASC_NODE":"318.0019","ECCENTRICITY":"0.00009470","ARG_OF_PERICENTER":"80.0036","OBJECT_TYPE":"PAYLOAD","MEAN_MOTION":"15.08841634","PERIAPSIS":"539.085","CLASSIFICATION_TYPE":"U","PERIOD":"95.437","OBJECT_ID":"2022-025AW","SEMIMAJOR_AXIS":"6917.875","RCS_SIZE":"LARGE","MEAN_MOTION_DOT":"0.00001437","REV_AT_EPOCH":"6559","EPOCH":"2023-05-15T18:37:57.926496","MEAN_ANOMALY":"280.1063","OBJECT_NAME":"STARLINK-3653","TIME_SYSTEM":"UTC","TLE_LINE2":"2 52000  53.2167 318.0019 0000947  80.0036 280.1063 15.08841634 65597","SITE":"AFETR","GP_ID":"231926934","EPHEMERIS_TYPE":"0"},{"MEAN_ANOMALY":"288.4608","OBJECT_NAME":"STARLINK-3659","EPOCH":"2023-05-15T17:18:29.655648","REV_AT_EPOCH":"6558","OBJECT_ID":"2022-025AX","SEMIMAJOR_AXIS":"6917.842","RCS_SIZE":"LARGE","MEAN_MOTION_DOT":"0.00012645","EPHEMERIS_TYPE":"0","TIME_SYSTEM":"UTC","TLE_LINE2":"2 52001  53.2157 318.3375 0001021  71.6495 288.4608 15.08852706 65581","SITE":"AFETR","GP_ID":"231927678","REF_FRAME":"TEME","MEAN_MOTION_DDOT":"0.0000000000000","TLE_LINE1":"1 52001U 22025AX  23135.72117657  .00012645  00000-0  81084-3 0  9991","ELEMENT_SET_NO":"999","APOAPSIS":"540.413","MEAN_ELEMENT_THEORY":"SGP4","DECAY_DATE":null,"LAUNCH_DATE":"2022-03-09","MEAN_MOTION":"15.08852706","PERIAPSIS":"539.000","CLASSIFICATION_TYPE":"U","PERIOD":"95.437","ECCENTRICITY":"0.00010210","RA_OF_ASC_NODE":"318.3375","INCLINATION":"53.2157","ARG_OF_PERICENTER":"71.6495","OBJECT_TYPE":"PAYLOAD","NORAD_CAT_ID":"52001","CENTER_NAME":"EARTH","FILE":"3908892","COUNTRY_CODE":"US","BSTAR":"0.00081084000000"},{"REF_FRAME":"TEME","TLE_LINE1":"1 52002U 22025AY  23135.78469559  .00001237  00000-0  95797-4 0  9991","MEAN_MOTION_DDOT":"0.0000000000000","MEAN_ELEMENT_THEORY":"SGP4","APOAPSIS":"540.540","ELEMENT_SET_NO":"999","DECAY_DATE":null,"LAUNCH_DATE":"2022-03-09","PERIOD":"95.438","CLASSIFICATION_TYPE":"U","PERIAPSIS":"538.949","MEAN_MOTION":"15.08840194","OBJECT_TYPE":"PAYLOAD","ARG_OF_PERICENTER":"86.0719","RA_OF_ASC_NODE":"318.0630","INCLINATION":"53.2160","ECCENTRICITY":"0.00011500","CENTER_NAME":"EARTH","NORAD_CAT_ID":"52002","BSTAR":"0.00009579700000","COUNTRY_CODE":"US","FILE":"3908892","OBJECT_NAME":"STARLINK-3668","MEAN_ANOMALY":"274.0405","EPOCH":"2023-05-15T18:49:57.698976","REV_AT_EPOCH":"6559","MEAN_MOTION_DOT":"0.00001237","RCS_SIZE":"LARGE","SEMIMAJOR_AXIS":"6917.880","OBJECT_ID":"2022-025AY","EPHEMERIS_TYPE":"0","GP_ID":"231926434","SITE":"AFETR","TLE_LINE2":"2 52002  53.2160 318.0630 0001150  86.0719 274.0405 15.08840194 65594","TIME_SYSTEM":"UTC"},{"BSTAR":"0.00003766100000","COUNTRY_CODE":"US","FILE":"3908794","CENTER_NAME":"EARTH","NORAD_CAT_ID":"52003","OBJECT_TYPE":"PAYLOAD","ARG_OF_PERICENTER":"89.4865","RA_OF_ASC_NODE":"318.0719","ECCENTRICITY":"0.00011270","INCLINATION":"53.2170","PERIOD":"95.437","CLASSIFICATION_TYPE":"U","PERIAPSIS":"538.937","MEAN_MOTION":"15.08849297","LAUNCH_DATE":"2022-03-09","DECAY_DATE":null,"MEAN_ELEMENT_THEORY":"SGP4","APOAPSIS":"540.497","ELEMENT_SET_NO":"999","MEAN_MOTION_DDOT":"0.0000000000000","TLE_LINE1":"1 52003U 22025AZ  23135.78005111  .00000312  00000-0  37661-4 0  9991","REF_FRAME":"TEME","GP_ID":"231900968","SITE":"AFETR","TLE_LINE2":"2 52003  53.2170 318.0719 0001127  89.4865 270.6256 15.08849297 67105","TIME_SYSTEM":"UTC","EPHEMERIS_TYPE":"0","RCS_SIZE":"LARGE","MEAN_MOTION_DOT":"0.00000312","SEMIMAJOR_AXIS":"6917.852","OBJECT_ID":"2022-025AZ","REV_AT_EPOCH":"6710","EPOCH":"2023-05-15T18:43:16.415904","OBJECT_NAME":"STARLINK-3654","MEAN_ANOMALY":"270.6256"},{"EPHEMERIS_TYPE":"0","TIME_SYSTEM":"UTC","TLE_LINE2":"2 52088  53.2175 278.2119 0001327  76.8189 283.2951 15.08845744 66851","GP_ID":"231900034","SITE":"AFETR","MEAN_ANOMALY":"283.2951","OBJECT_NAME":"STARLINK-3537","EPOCH":"2023-05-15T16:36:03.177216","REV_AT_EPOCH":"6685","OBJECT_ID":"2022-029A","SEMIMAJOR_AXIS":"6917.863","RCS_SIZE":"LARGE","MEAN_MOTION_DOT":"0.00000875","MEAN_MOTION":"15.08845744","PERIAPSIS":"538.810","CLASSIFICATION_TYPE":"U","PERIOD":"95.437","RA_OF_ASC_NODE":"278.2119","INCLINATION":"53.2175","ECCENTRICITY":"0.00013270","ARG_OF_PERICENTER":"76.8189","OBJECT_TYPE":"PAYLOAD","NORAD_CAT_ID":"52088","CENTER_NAME":"EARTH","FILE":"3908757","COUNTRY_CODE":"US","BSTAR":"0.00007304000000","REF_FRAME":"TEME","MEAN_MOTION_DDOT":"0.0000000000000","TLE_LINE1":"1 52088U 22029A   23135.69170344  .00000875  00000-0  73040-4 0  9994","ELEMENT_SET_NO":"999","APOAPSIS":"540.646","MEAN_ELEMENT_THEORY":"SGP4","LAUNCH_DATE":"2022-03-19","DECAY_DATE":null},{"REV_AT_EPOCH":"6520","SEMIMAJOR_AXIS":"6917.858","MEAN_MOTION_DOT":"0.00000214","RCS_SIZE":"LARGE","OBJECT_ID":"2022-029B","OBJECT_NAME":"STARLINK-3722","MEAN_ANOMALY":"281.8615","EPOCH":"2023-05-14T23:45:16.445952","SITE":"AFETR","GP_ID":"231895126","TIME_SYSTEM":"UTC","TLE_LINE2":"2 52089  53.2167  31.6243 0000920  78.2480 281.8615 15.08847475 65202","EPHEMERIS_TYPE":"0","APOAPSIS":"540.359","MEAN_ELEMENT_THEORY":"SGP4","ELEMENT_SET_NO":"999","DECAY_DATE":null,"LAUNCH_DATE":"2022-03-19","REF_FRAME":"TEME","MEAN_MOTION_DDOT":"0.0000000000000","TLE_LINE1":"1 52089U 22029B   23134.98977368  .00000214  00000-0  31505-4 0  9994","NORAD_CAT_ID":"52089","CENTER_NAME":"EARTH","COUNTRY_CODE":"US","BSTAR":"0.00003150500000","FILE":"3908681","CLASSIFICATION_TYPE":"U","PERIOD":"95.437","MEAN_MOTION":"15.08847475","PERIAPSIS":"539.086","OBJECT_TYPE":"PAYLOAD","INCLINATION":"53.2167","RA_OF_ASC_NODE":"31.6243","ECCENTRICITY":"0.00009200","ARG_OF_PERICENTER":"78.2480"},{"MEAN_ELEMENT_THEORY":"SGP4","APOAPSIS":"540.834","ELEMENT_SET_NO":"999","DECAY_DATE":null,"LAUNCH_DATE":"2022-03-19","REF_FRAME":"TEME","MEAN_MOTION_DDOT":"0.0000000000000","TLE_LINE1":"1 52090U 22029C   23135.44241389 -.00000247  00000-0  25752-5 0  9990","CENTER_NAME":"EARTH","NORAD_CAT_ID":"52090","BSTAR":"0.00000257520000","COUNTRY_CODE":"US","FILE":"3908758","PERIOD":"95.438","CLASSIFICATION_TYPE":"U","PERIAPSIS":"538.667","MEAN_MOTION":"15.08838303","OBJECT_TYPE":"PAYLOAD","ARG_OF_PERICENTER":"87.8075","INCLINATION":"53.2186","RA_OF_ASC_NODE":"29.5905","ECCENTRICITY":"0.00015660","REV_AT_EPOCH":"6527","RCS_SIZE":"LARGE","MEAN_MOTION_DOT":"-0.00000247","SEMIMAJOR_AXIS":"6917.886","OBJECT_ID":"2022-029C","OBJECT_NAME":"STARLINK-3712","MEAN_ANOMALY":"272.3096","EPOCH":"2023-05-15T10:37:04.560096","GP_ID":"231900061","SITE":"AFETR","TLE_LINE2":"2 52090  53.2186  29.5905 0001566  87.8075 272.3096 15.08838303 65274","TIME_SYSTEM":"UTC","EPHEMERIS_TYPE":"0"}];
